[{"OBJECT_NAME":"STARLINK-4531","OBJECT_ID":"2022-097AP","EPOCH":"2023-09-15T15:17:55.724928","MEAN_MOTION":15.08848999,"ECCENTRICITY":0.0001395,"INCLINATION":53.2155,"RA_OF_ASC_NODE":221.5439,"ARG_OF_PERICENTER":87.7163,"MEAN_ANOMALY":272.3989,"EPHEMERIS_TYPE":0,"CLASSIFICATION_TYPE":"U","NORAD_CAT_ID":53425,"ELEMENT_SET_NO":999,"REV_AT_EPOCH":6138,"BSTAR":0.00055262,"MEAN_MOTION_DOT":8.52e-5,"MEAN_MOTION_DDOT":0},{"OBJECT_NAME":"STARLINK-4558","OBJECT_ID":"2022-097AQ","EPOCH":"2023-09-15T06:34:38.912736","MEAN_MOTION":15.08847707,"ECCENTRICITY":0.0001372,"INCLINATION":53.2169,"RA_OF_ASC_NODE":213.3314,"ARG_OF_PERICENTER":112.749,"MEAN_ANOMALY":247.3647,"EPHEMERIS_TYPE":0,"CLASSIFICATION_TYPE":"U","NORAD_CAT_ID":53426,"ELEMENT_SET_NO":999,"REV_AT_EPOCH":6194,"BSTAR":5.8534e-5,"MEAN_MOTION_DOT":6.44e-6,"MEAN_MOTION_DDOT":0},{"OBJECT_NAME":"STARLINK-4541","OBJECT_ID":"2022-097AR","EPOCH":"2023-09-15T07:10:23.882592","MEAN_MOTION":15.08826946,"ECCENTRICITY":0.0001326,"INCLINATION":53.2151,"RA_OF_ASC_NODE":223.0645,"ARG_OF_PERICENTER":82.1371,"MEAN_ANOMALY":277.9772,"EPHEMERIS_TYPE":0,"CLASSIFICATION_TYPE":"U","NORAD_CAT_ID":53427,"ELEMENT_SET_NO":999,"REV_AT_EPOCH":6181,"BSTAR":0.00097477,"MEAN_MOTION_DOT":0.00015254,"MEAN_MOTION_DDOT":0},{"OBJECT_NAME":"STARLINK-4540","OBJECT_ID":"2022-097AS","EPOCH":"2023-09-15T06:24:02.536992","MEAN_MOTION":15.08856449,"ECCENTRICITY":0.0001244,"INCLINATION":53.2151,"RA_OF_ASC_NODE":213.2871,"ARG_OF_PERICENTER":110.0589,"MEAN_ANOMALY":250.0537,"EPHEMERIS_TYPE":0,"CLASSIFICATION_TYPE":"U","NORAD_CAT_ID":53428,"ELEMENT_SET_NO":999,"REV_AT_EPOCH":6194,"BSTAR":0.0010139,"MEAN_MOTION_DOT":0.00015892,"MEAN_MOTION_DDOT":0},{"OBJECT_NAME":"STARLINK-4543","OBJECT_ID":"2022-097AT","EPOCH":"2023-09-15T06:29:20.883840","MEAN_MOTION":15.08853568,"ECCENTRICITY":0.000137,"INCLINATION":53.2148,"RA_OF_ASC_NODE":213.3092,"ARG_OF_PERICENTER":86.2758,"MEAN_ANOMALY":273.8391,"EPHEMERIS_TYPE":0,"CLASSIFICATION_TYPE":"U","NORAD_CAT_ID":53429,"ELEMENT_SET_NO":999,"REV_AT_EPOCH":6146,"BSTAR":0.00066678,"MEAN_MOTION_DOT":0.00010344,"MEAN_MOTION_DDOT":0},{"OBJECT_NAME":"STARLINK-4538","OBJECT_ID":"2022-097AU","EPOCH":"2023-09-15T06:18:44.414784","MEAN_MOTION":15.08839404,"ECCENTRICITY":0.000143,"INCLINATION":53.217,"RA_OF_ASC_NODE":213.2603,"ARG_OF_PERICENTER":84.5039,"MEAN_ANOMALY":275.6117,"EPHEMERIS_TYPE":0,"CLASSIFICATION_TYPE":"U","NORAD_CAT_ID":53430,"ELEMENT_SET_NO":999,"REV_AT_EPOCH":6192,"BSTAR":0.00011332,"MEAN_MOTION_DOT":1.516e-5,"MEAN_MOTION_DDOT":0},{"OBJECT_NAME":"STARLINK-4548","OBJECT_ID":"2022-097AV","EPOCH":"2023-09-15T06:55:45.296544","MEAN_MOTION":15.08846296,"ECCENTRICITY":0.0001522,"INCLINATION":53.2166,"RA_OF_ASC_NODE":212.7224,"ARG_OF_PERICENTER":104.0564,"MEAN_ANOMALY":256.0597,"EPHEMERIS_TYPE":0,"CLASSIFICATION_TYPE":"U","NORAD_CAT_ID":53431,"ELEMENT_SET_NO":999,"REV_AT_EPOCH":6195,"BSTAR":0.00014775,"MEAN_MOTION_DOT":2.065e-5,"MEAN_MOTION_DDOT":0},{"OBJECT_NAME":"STARLINK-4557","OBJECT_ID":"2022-097AW","EPOCH":"2023-09-15T04:06:12.005856","MEAN_MOTION":15.08851361,"ECCENTRICITY":0.0001366,"INCLINATION":53.2159,"RA_OF_ASC_NODE":213.4041,"ARG_OF_PERICENTER":92.5915,"MEAN_ANOMALY":267.5234,"EPHEMERIS_TYPE":0,"CLASSIFICATION_TYPE":"U","NORAD_CAT_ID":53432,"ELEMENT_SET_NO":999,"REV_AT_EPOCH":6193,"BSTAR":0.0001677,"MEAN_MOTION_DOT":2.383e-5,"MEAN_MOTION_DDOT":0},{"OBJECT_NAME":"STARLINK-4549","OBJECT_ID":"2022-097AX","EPOCH":"2023-09-15T07:48:49.093344","MEAN_MOTION":15.08841465,"ECCENTRICITY":0.0001353,"INCLINATION":53.2167,"RA_OF_ASC_NODE":212.9428,"ARG_OF_PERICENTER":96.7177,"MEAN_ANOMALY":263.3969,"EPHEMERIS_TYPE":0,"CLASSIFICATION_TYPE":"U","NORAD_CAT_ID":53433,"ELEMENT_SET_NO":999,"REV_AT_EPOCH":6193,"BSTAR":3.0333e-5,"MEAN_MOTION_DOT":1.95e-6,"MEAN_MOTION_DDOT":0},{"OBJECT_NAME":"STARLINK-4498","OBJECT_ID":"2022-097AY","EPOCH":"2023-09-15T07:11:40.318944","MEAN_MOTION":15.08847705,"ECCENTRICITY":0.0001509,"INCLINATION":53.2162,"RA_OF_ASC_NODE":212.7864,"ARG_OF_PERICENTER":96.2815,"MEAN_ANOMALY":263.8349,"EPHEMERIS_TYPE":0,"CLASSIFICATION_TYPE":"U","NORAD_CAT_ID":53434,"ELEMENT_SET_NO":999,"REV_AT_EPOCH":6196,"BSTAR":0.00020446,"MEAN_MOTION_DOT":2.968e-5,"MEAN_MOTION_DDOT":0},{"OBJECT_NAME":"STARLINK-4542","OBJECT_ID":"2022-097AZ","EPOCH":"2023-09-15T04:11:30.804576","MEAN_MOTION":15.08848781,"ECCENTRICITY":0.0001329,"INCLINATION":53.2164,"RA_OF_ASC_NODE":213.4257,"ARG_OF_PERICENTER":93.4161,"MEAN_ANOMALY":266.6983,"EPHEMERIS_TYPE":0,"CLASSIFICATION_TYPE":"U","NORAD_CAT_ID":53435,"ELEMENT_SET_NO":999,"REV_AT_EPOCH":6145,"BSTAR":0.00033556,"MEAN_MOTION_DOT":5.058e-5,"MEAN_MOTION_DDOT":0},{"OBJECT_NAME":"STARLINK-4527","OBJECT_ID":"2022-097BA","EPOCH":"2023-09-15T07:06:21.629952","MEAN_MOTION":15.08850804,"ECCENTRICITY":0.0001326,"INCLINATION":53.2166,"RA_OF_ASC_NODE":212.7636,"ARG_OF_PERICENTER":95.645,"MEAN_ANOMALY":264.4693,"EPHEMERIS_TYPE":0,"CLASSIFICATION_TYPE":"U","NORAD_CAT_ID":53436,"ELEMENT_SET_NO":999,"REV_AT_EPOCH":6195,"BSTAR":0.00012406,"MEAN_MOTION_DOT":1.688e-5,"MEAN_MOTION_DDOT":0},{"OBJECT_NAME":"STARLINK-4526","OBJECT_ID":"2022-097BC","EPOCH":"2023-09-15T07:01:03.425664","MEAN_MOTION":15.08850761,"ECCENTRICITY":0.0001446,"INCLINATION":53.2162,"RA_OF_ASC_NODE":212.7382,"ARG_OF_PERICENTER":100.1104,"MEAN_ANOMALY":260.0051,"EPHEMERIS_TYPE":0,"CLASSIFICATION_TYPE":"U","NORAD_CAT_ID":53438,"ELEMENT_SET_NO":999,"REV_AT_EPOCH":6196,"BSTAR":0.00028722,"MEAN_MOTION_DOT":4.287e-5,"MEAN_MOTION_DDOT":0},{"OBJECT_NAME":"STARLINK-4519","OBJECT_ID":"2022-097BD","EPOCH":"2023-09-15T07:18:21.221856","MEAN_MOTION":15.08847852,"ECCENTRICITY":0.0001334,"INCLINATION":53.216,"RA_OF_ASC_NODE":212.8109,"ARG_OF_PERICENTER":90.6739,"MEAN_ANOMALY":269.4406,"EPHEMERIS_TYPE":0,"CLASSIFICATION_TYPE":"U","NORAD_CAT_ID":53439,"ELEMENT_SET_NO":999,"REV_AT_EPOCH":6196,"BSTAR":0.00015992,"MEAN_MOTION_DOT":2.259e-5,"MEAN_MOTION_DDOT":0},{"OBJECT_NAME":"DONGPO 07","OBJECT_ID":"2022-098A","EPOCH":"2023-09-15T12:30:01.857312","MEAN_MOTION":15.15426178,"ECCENTRICITY":0.0008711,"INCLINATION":97.5287,"RA_OF_ASC_NODE":353.8742,"ARG_OF_PERICENTER":317.0977,"MEAN_ANOMALY":42.9575,"EPHEMERIS_TYPE":0,"CLASSIFICATION_TYPE":"U","NORAD_CAT_ID":53444,"ELEMENT_SET_NO":999,"REV_AT_EPOCH":6062,"BSTAR":0.00049678,"MEAN_MOTION_DOT":9.334e-5,"MEAN_MOTION_DDOT":0},{"OBJECT_NAME":"JILIN-1 GAOFEN 03D09","OBJECT_ID":"2022-098B","EPOCH":"2023-09-15T18:03:36.157248","MEAN_MOTION":15.15429509,"ECCENTRICITY":0.0006754,"INCLINATION":97.5316,"RA_OF_ASC_NODE":354.3248,"ARG_OF_PERICENTER":348.0205,"MEAN_ANOMALY":12.0865,"EPHEMERIS_TYPE":0,"CLASSIFICATION_TYPE":"U","NORAD_CAT_ID":53445,"ELEMENT_SET_NO":999,"REV_AT_EPOCH":6065,"BSTAR":0.00055008,"MEAN_MOTION_DOT":0.00010341,"MEAN_MOTION_DDOT":0},{"OBJECT_NAME":"2022-098C","OBJECT_ID":"2022-098C","EPOCH":"2023-09-15T17:06:44.649792","MEAN_MOTION":15.15428186,"ECCENTRICITY":0.0008416,"INCLINATION":97.533,"RA_OF_ASC_NODE":354.3069,"ARG_OF_PERICENTER":324.1185,"MEAN_ANOMALY":35.9481,"EPHEMERIS_TYPE":0,"CLASSIFICATION_TYPE":"U","NORAD_CAT_ID":53446,"ELEMENT_SET_NO":999,"REV_AT_EPOCH":6064,"BSTAR":0.00048982,"MEAN_MOTION_DOT":9.202e-5,"MEAN_MOTION_DDOT":0}]
