STARLINK-4531           
1 53425U 22097AP  23258.63745052  .00008520  00000+0  55262-3 0  9998
2 53425  53.2155 221.5439 0001395  87.7163 272.3989 15.08848999 61387
STARLINK-4558           
1 53426U 22097AQ  23258.27406149  .00000644  00000+0  58534-4 0  9995
2 53426  53.2169 213.3314 0001372 112.7490 247.3647 15.08847707 61942
STARLINK-4541           
1 53427U 22097AR  23258.29888753  .00015254  00000+0  97477-3 0  9994
2 53427  53.2151 223.0645 0001326  82.1371 277.9772 15.08826946 61812
STARLINK-4540           
1 53428U 22097AS  23258.26669603  .00015892  00000+0  10139-2 0  9990
2 53428  53.2151 213.2871 0001244 110.0589 250.0537 15.08856449 61942
STARLINK-4543           
1 53429U 22097AT  23258.27038060  .00010344  00000+0  66678-3 0  9996
2 53429  53.2148 213.3092 0001370  86.2758 273.8391 15.08853568 61464
STARLINK-4538           
1 53430U 22097AU  23258.26301406  .00001516  00000+0  11332-3 0  9992
2 53430  53.2170 213.2603 0001430  84.5039 275.6117 15.08839404 61928
STARLINK-4548           
1 53431U 22097AV  23258.28871871  .00002065  00000+0  14775-3 0  9997
2 53431  53.2166 212.7224 0001522 104.0564 256.0597 15.08846296 61955
STARLINK-4557           
1 53432U 22097AW  23258.17097229  .00002383  00000+0  16770-3 0  9993
2 53432  53.2159 213.4041 0001366  92.5915 267.5234 15.08851361 61932
STARLINK-4549           
1 53433U 22097AX  23258.32556821  .00000195  00000+0  30333-4 0  9990
2 53433  53.2167 212.9428 0001353  96.7177 263.3969 15.08841465 61930
STARLINK-4498           
1 53434U 22097AY  23258.29977221  .00002968  00000+0  20446-3 0  9991
2 53434  53.2162 212.7864 0001509  96.2815 263.8349 15.08847705 61968
STARLINK-4542           
1 53435U 22097AZ  23258.17466209  .00005058  00000+0  33556-3 0  9997
2 53435  53.2164 213.4257 0001329  93.4161 266.6983 15.08848781 61452
STARLINK-4527           
1 53436U 22097BA  23258.29608368  .00001688  00000+0  12406-3 0  9991
2 53436  53.2166 212.7636 0001326  95.6450 264.4693 15.08850804 61958
STARLINK-4526           
1 53438U 22097BC  23258.29240076  .00004287  00000+0  28722-3 0  9997
2 53438  53.2162 212.7382 0001446 100.1104 260.0051 15.08850761 61968
STARLINK-4519           
1 53439U 22097BD  23258.30441229  .00002259  00000+0  15992-3 0  9995
2 53439  53.2160 212.8109 0001334  90.6739 269.4406 15.08847852 61962
DONGPO 07               
1 53444U 22098A   23258.52085483  .00009334  00000+0  49678-3 0  9991
2 53444  97.5287 353.8742 0008711 317.0977  42.9575 15.15426178 60629
JILIN-1 GAOFEN 03D09    
1 53445U 22098B   23258.75250182  .00010341  00000+0  55008-3 0  9991
2 53445  97.5316 354.3248 0006754 348.0205  12.0865 15.15429509 60657
2022-098C               
1 53446U 22098C   23258.71301678  .00009202  00000+0  48982-3 0  9992
2 53446  97.5330 354.3069 0008416 324.1185  35.9481 15.15428186 60641
